{
  "norad_id": 65473,
  "name": "STARLINK-34762",
  "history": [
    {
      "epoch": "2026-03-28T12:05:06.754560Z",
      "apogee_km": 475.98167941908196,
      "perigee_km": 474.43186425851763,
      "latitude_deg": 6.083129513326586e-05,
      "longitude_deg": 163.62784362940744,
      "height_km": 476.08838100931246,
      "semi_major_axis_km": 6853.3437718387995,
      "eccentricity": 0.00011307,
      "inclination_deg": 53.1591,
      "raan_deg": 170.829,
      "arg_perigee_deg": 88.7761,
      "mean_anomaly_deg": 271.337,
      "mean_motion_rev_day": 15.30202779
    },
    {
      "epoch": "2026-03-29T22:34:17.289696Z",
      "apogee_km": 476.1794508412913,
      "perigee_km": 474.2111738011927,
      "latitude_deg": -3.685833632193195e-05,
      "longitude_deg": -1.7579256331448592,
      "height_km": 475.94891474480517,
      "semi_major_axis_km": 6853.332312321242,
      "eccentricity": 0.0001436,
      "inclination_deg": 53.1597,
      "raan_deg": 164.1535,
      "arg_perigee_deg": 81.5719,
      "mean_anomaly_deg": 278.5444,
      "mean_motion_rev_day": 15.30206617
    },
    {
      "epoch": "2026-03-29T22:34:17.290560Z",
      "apogee_km": 476.17924524132286,
      "perigee_km": 474.21137940116296,
      "latitude_deg": -3.409184570757667e-05,
      "longitude_deg": -1.7579271818598308,
      "height_km": 475.9489448742167,
      "semi_major_axis_km": 6853.332312321242,
      "eccentricity": 0.00014357,
      "inclination_deg": 53.1597,
      "raan_deg": 164.1535,
      "arg_perigee_deg": 81.5719,
      "mean_anomaly_deg": 278.5444,
      "mean_motion_rev_day": 15.30206617
    },
    {
      "epoch": "2026-03-30T11:06:42.990048Z",
      "apogee_km": 476.4161204688626,
      "perigee_km": 473.99620499810135,
      "latitude_deg": -4.5778019127178954e-05,
      "longitude_deg": 167.19346458941052,
      "height_km": 475.91712794416145,
      "semi_major_axis_km": 6853.343162733482,
      "eccentricity": 0.00017655,
      "inclination_deg": 53.1602,
      "raan_deg": 161.727,
      "arg_perigee_deg": 81.1343,
      "mean_anomaly_deg": 278.9857,
      "mean_motion_rev_day": 15.30202983
    },
    {
      "epoch": "2026-03-31T10:37:31.042560Z",
      "apogee_km": 476.5890350663076,
      "perigee_km": 473.85673754683467,
      "latitude_deg": -5.9496356954254824e-05,
      "longitude_deg": 168.9763779248602,
      "height_km": 476.04048051316073,
      "semi_major_axis_km": 6853.359886306571,
      "eccentricity": 0.00019934,
      "inclination_deg": 53.1601,
      "raan_deg": 157.1758,
      "arg_perigee_deg": 86.6648,
      "mean_anomaly_deg": 273.458,
      "mean_motion_rev_day": 15.30197382
    }
  ]
}